{
    "links": {
        "self": "http://www.neowsapp.com/rest/v1/neo/3767005?api_key=iIulBulltgU6a56xZRHN4H3l9WmuAYTsLGpBGhQ2"
    },
    "id": "3767005",
    "neo_reference_id": "3767005",
    "name": "(2017 BT6)",
    "designation": "2017 BT6",
    "nasa_jpl_url": "http://ssd.jpl.nasa.gov/sbdb.cgi?sstr=3767005",
    "absolute_magnitude_h": 24.8,
    "estimated_diameter": {
        "kilometers": {
            "estimated_diameter_min": 0.0291443905,
            "estimated_diameter_max": 0.0651688382
        },
        "meters": {
            "estimated_diameter_min": 29.1443904535,
            "estimated_diameter_max": 65.1688382168
        },
        "miles": {
            "estimated_diameter_min": 0.018109479,
            "estimated_diameter_max": 0.0404940262
        },
        "feet": {
            "estimated_diameter_min": 95.6180819754,
            "estimated_diameter_max": 213.8085311752
        }
    },
    "is_potentially_hazardous_asteroid": false,
    "close_approach_data": [
        {
            "close_approach_date": "2017-01-31",
            "close_approach_date_full": "2017-Jan-31 17:48",
            "epoch_date_close_approach": 1485884880000,
            "relative_velocity": {
                "kilometers_per_second": "12.2819100628",
                "kilometers_per_hour": "44214.8762260642",
                "miles_per_hour": "27473.4046194675"
            },
            "miss_distance": {
                "astronomical": "0.0336927824",
                "lunar": "13.1064923536",
                "kilometers": "5040368.481413488",
                "miles": "3131939.7443746144"
            },
            "orbiting_body": "Earth"
        },
        {
            "close_approach_date": "2022-08-09",
            "close_approach_date_full": "2022-Aug-09 14:35",
            "epoch_date_close_approach": 1660055700000,
            "relative_velocity": {
                "kilometers_per_second": "8.607308036",
                "kilometers_per_hour": "30986.3089295392",
                "miles_per_hour": "19253.6873456906"
            },
            "miss_distance": {
                "astronomical": "1.8231488333",
                "lunar": "709.2048961537",
                "kilometers": "272739182.154665071",
                "miles": "169472269.2573611398"
            },
            "orbiting_body": "Juptr"
        },
        {
            "close_approach_date": "2188-04-16",
            "close_approach_date_full": "2188-Apr-16 05:34",
            "epoch_date_close_approach": 6888605640000,
            "relative_velocity": {
                "kilometers_per_second": "7.9797979521",
                "kilometers_per_hour": "28727.272627569",
                "miles_per_hour": "17850.0100390581"
            },
            "miss_distance": {
                "astronomical": "1.7584357232",
                "lunar": "684.0314963248",
                "kilometers": "263058238.722629584",
                "miles": "163456809.9492488992"
            },
            "orbiting_body": "Juptr"
        }
    ],
    "orbital_data": {
        "orbit_id": "2",
        "orbit_determination_date": "2017-04-06 08:20:48",
        "first_observation_date": "2017-01-26",
        "last_observation_date": "2017-01-28",
        "data_arc_in_days": 2,
        "observations_used": 50,
        "orbit_uncertainty": "8",
        "minimum_orbit_intersection": ".0331154",
        "jupiter_tisserand_invariant": "3.159",
        "epoch_osculation": "2457780.5",
        "eccentricity": ".6332708334983208",
        "semi_major_axis": "2.484769134218257",
        "inclination": "5.586226796700345",
        "ascending_node_longitude": "113.6947732448067",
        "orbital_period": "1430.630541651539",
        "perihelion_distance": ".9112373135409603",
        "perihelion_argument": "57.67569703878309",
        "aphelion_distance": "4.058300954895553",
        "perihelion_time": "2457814.014421148515",
        "mean_anomaly": "351.5665217103941",
        "mean_motion": ".2516372952477382",
        "equinox": "J2000",
        "orbit_class": {
            "orbit_class_type": "APO",
            "orbit_class_description": "Near-Earth asteroid orbits which cross the Earth’s orbit similar to that of 1862 Apollo",
            "orbit_class_range": "a (semi-major axis) > 1.0 AU; q (perihelion) < 1.017 AU"
        }
    },
    "is_sentry_object": false
}